STARLINK-36493          
1 67456U 26008M   26029.50003471 -.01398609  00000+0 -81098-2 0  9998
2 67456  43.0013  71.3199 0001709 274.9857 103.2034 15.80229706  3499
STARLINK-36529          
1 67457U 26008N   26029.50003471 -.01412791  00000+0 -82325-2 0  9992
2 67457  43.0013  71.3133 0001740 275.7798 104.9385 15.80150392  3497
STARLINK-36528          
1 67458U 26008P   26029.50003471 -.01440926  00000+0 -84809-2 0  9993
2 67458  43.0013  71.3009 0001433 281.4374 104.2890 15.79992091  3518
STARLINK-36546          
1 67459U 26008Q   26029.50003471 -.01460906  00000+0 -86739-2 0  9998
2 67459  43.0013  71.2933 0001592 283.6700 104.9845 15.79840617  3497
STARLINK-36523          
1 67460U 26008R   26029.50003471 -.01479540  00000+0 -88480-2 0  9999
2 67460  43.0014  71.2866 0001495 285.0273 106.3143 15.79722381  3515
STARLINK-36522          
1 67461U 26008S   26029.50003471 -.01495324  00000+0 -90004-2 0  9993
2 67461  43.0014  71.2802 0001371 284.9211 108.9676 15.79614919  3492
STARLINK-36504          
1 67462U 26008T   26029.50003471 -.01512733  00000+0 -91733-2 0  9998
2 67462  43.0014  71.2734 0001421 284.5624 111.9945 15.79487569  3512
STARLINK-36505          
1 67463U 26008U   26029.50003471 -.01517956  00000+0 -92679-2 0  9991
2 67463  43.0018  71.2673 0001343 284.0763 115.1461 15.79350931  3499
STARLINK-36421          
1 67464U 26008V   26029.50003471 -.01539578  00000+0 -94817-2 0  9992
2 67464  43.0017  71.2604 0001235 286.7565 115.1463 15.79207341  3490
STARLINK-36437          
1 67465U 26008W   26029.50003471 -.01546568  00000+0 -95745-2 0  9991
2 67465  43.0014  71.2538 0001307 278.0957 126.2179 15.79107305  3499
STARLINK-36520          
1 67466U 26008X   26029.50003471 -.01574619  00000+0 -98277-2 0  9993
2 67466  43.0012  71.2472 0001352 276.8559 129.9935 15.78986689  3498
STARLINK-36425          
1 67467U 26008Y   26029.50003471 -.01583715  00000+0 -99415-2 0  9996
2 67467  43.0012  71.2412 0001269 274.7413 134.5040 15.78880997  3490
