CCSDS_OMM_VERS = 2.0
CREATION_DATE  = 
ORIGINATOR     = 

OBJECT_NAME    = STARLINK-36493
OBJECT_ID      = 2026-008M
CENTER_NAME    = EARTH
REF_FRAME      = TEME
TIME_SYSTEM    = UTC
MEAN_ELEMENT_THEORY = SGP/SGP4

EPOCH          = 2026-01-29T12:00:02.998944
MEAN_MOTION    = 15.80229706
ECCENTRICITY   = .0001709
INCLINATION    = 43.0013
RA_OF_ASC_NODE = 71.3199
ARG_OF_PERICENTER = 274.9857
MEAN_ANOMALY   = 103.2034

EPHEMERIS_TYPE = 0
CLASSIFICATION_TYPE = U
NORAD_CAT_ID   = 67456
ELEMENT_SET_NO = 999
REV_AT_EPOCH   = 349
BSTAR          = -.81098E-2
MEAN_MOTION_DOT = -.1398609E-1
MEAN_MOTION_DDOT = 0

CCSDS_OMM_VERS = 2.0
CREATION_DATE  = 
ORIGINATOR     = 

OBJECT_NAME    = STARLINK-36529
OBJECT_ID      = 2026-008N
CENTER_NAME    = EARTH
REF_FRAME      = TEME
TIME_SYSTEM    = UTC
MEAN_ELEMENT_THEORY = SGP/SGP4

EPOCH          = 2026-01-29T12:00:02.998944
MEAN_MOTION    = 15.80150392
ECCENTRICITY   = .000174
INCLINATION    = 43.0013
RA_OF_ASC_NODE = 71.3133
ARG_OF_PERICENTER = 275.7798
MEAN_ANOMALY   = 104.9385

EPHEMERIS_TYPE = 0
CLASSIFICATION_TYPE = U
NORAD_CAT_ID   = 67457
ELEMENT_SET_NO = 999
REV_AT_EPOCH   = 349
BSTAR          = -.82325E-2
MEAN_MOTION_DOT = -.1412791E-1
MEAN_MOTION_DDOT = 0

CCSDS_OMM_VERS = 2.0
CREATION_DATE  = 
ORIGINATOR     = 

OBJECT_NAME    = STARLINK-36528
OBJECT_ID      = 2026-008P
CENTER_NAME    = EARTH
REF_FRAME      = TEME
TIME_SYSTEM    = UTC
MEAN_ELEMENT_THEORY = SGP/SGP4

EPOCH          = 2026-01-29T12:00:02.998944
MEAN_MOTION    = 15.79992091
ECCENTRICITY   = .0001433
INCLINATION    = 43.0013
RA_OF_ASC_NODE = 71.3009
ARG_OF_PERICENTER = 281.4374
MEAN_ANOMALY   = 104.2890

EPHEMERIS_TYPE = 0
CLASSIFICATION_TYPE = U
NORAD_CAT_ID   = 67458
ELEMENT_SET_NO = 999
REV_AT_EPOCH   = 351
BSTAR          = -.84809E-2
MEAN_MOTION_DOT = -.1440926E-1
MEAN_MOTION_DDOT = 0

CCSDS_OMM_VERS = 2.0
CREATION_DATE  = 
ORIGINATOR     = 

OBJECT_NAME    = STARLINK-36546
OBJECT_ID      = 2026-008Q
CENTER_NAME    = EARTH
REF_FRAME      = TEME
TIME_SYSTEM    = UTC
MEAN_ELEMENT_THEORY = SGP/SGP4

EPOCH          = 2026-01-29T12:00:02.998944
MEAN_MOTION    = 15.79840617
ECCENTRICITY   = .0001592
INCLINATION    = 43.0013
RA_OF_ASC_NODE = 71.2933
ARG_OF_PERICENTER = 283.6700
MEAN_ANOMALY   = 104.9845

EPHEMERIS_TYPE = 0
CLASSIFICATION_TYPE = U
NORAD_CAT_ID   = 67459
ELEMENT_SET_NO = 999
REV_AT_EPOCH   = 349
BSTAR          = -.86739E-2
MEAN_MOTION_DOT = -.1460906E-1
MEAN_MOTION_DDOT = 0

CCSDS_OMM_VERS = 2.0
CREATION_DATE  = 
ORIGINATOR     = 

OBJECT_NAME    = STARLINK-36523
OBJECT_ID      = 2026-008R
CENTER_NAME    = EARTH
REF_FRAME      = TEME
TIME_SYSTEM    = UTC
MEAN_ELEMENT_THEORY = SGP/SGP4

EPOCH          = 2026-01-29T12:00:02.998944
MEAN_MOTION    = 15.79722381
ECCENTRICITY   = .0001495
INCLINATION    = 43.0014
RA_OF_ASC_NODE = 71.2866
ARG_OF_PERICENTER = 285.0273
MEAN_ANOMALY   = 106.3143

EPHEMERIS_TYPE = 0
CLASSIFICATION_TYPE = U
NORAD_CAT_ID   = 67460
ELEMENT_SET_NO = 999
REV_AT_EPOCH   = 351
BSTAR          = -.8848E-2
MEAN_MOTION_DOT = -.147954E-1
MEAN_MOTION_DDOT = 0

CCSDS_OMM_VERS = 2.0
CREATION_DATE  = 
ORIGINATOR     = 

OBJECT_NAME    = STARLINK-36522
OBJECT_ID      = 2026-008S
CENTER_NAME    = EARTH
REF_FRAME      = TEME
TIME_SYSTEM    = UTC
MEAN_ELEMENT_THEORY = SGP/SGP4

EPOCH          = 2026-01-29T12:00:02.998944
MEAN_MOTION    = 15.79614919
ECCENTRICITY   = .0001371
INCLINATION    = 43.0014
RA_OF_ASC_NODE = 71.2802
ARG_OF_PERICENTER = 284.9211
MEAN_ANOMALY   = 108.9676

EPHEMERIS_TYPE = 0
CLASSIFICATION_TYPE = U
NORAD_CAT_ID   = 67461
ELEMENT_SET_NO = 999
REV_AT_EPOCH   = 349
BSTAR          = -.90004E-2
MEAN_MOTION_DOT = -.1495324E-1
MEAN_MOTION_DDOT = 0

CCSDS_OMM_VERS = 2.0
CREATION_DATE  = 
ORIGINATOR     = 

OBJECT_NAME    = STARLINK-36504
OBJECT_ID      = 2026-008T
CENTER_NAME    = EARTH
REF_FRAME      = TEME
TIME_SYSTEM    = UTC
MEAN_ELEMENT_THEORY = SGP/SGP4

EPOCH          = 2026-01-29T12:00:02.998944
MEAN_MOTION    = 15.79487569
ECCENTRICITY   = .0001421
INCLINATION    = 43.0014
RA_OF_ASC_NODE = 71.2734
ARG_OF_PERICENTER = 284.5624
MEAN_ANOMALY   = 111.9945

EPHEMERIS_TYPE = 0
CLASSIFICATION_TYPE = U
NORAD_CAT_ID   = 67462
ELEMENT_SET_NO = 999
REV_AT_EPOCH   = 351
BSTAR          = -.91733E-2
MEAN_MOTION_DOT = -.1512733E-1
MEAN_MOTION_DDOT = 0

CCSDS_OMM_VERS = 2.0
CREATION_DATE  = 
ORIGINATOR     = 

OBJECT_NAME    = STARLINK-36505
OBJECT_ID      = 2026-008U
CENTER_NAME    = EARTH
REF_FRAME      = TEME
TIME_SYSTEM    = UTC
MEAN_ELEMENT_THEORY = SGP/SGP4

EPOCH          = 2026-01-29T12:00:02.998944
MEAN_MOTION    = 15.79350931
ECCENTRICITY   = .0001343
INCLINATION    = 43.0018
RA_OF_ASC_NODE = 71.2673
ARG_OF_PERICENTER = 284.0763
MEAN_ANOMALY   = 115.1461

EPHEMERIS_TYPE = 0
CLASSIFICATION_TYPE = U
NORAD_CAT_ID   = 67463
ELEMENT_SET_NO = 999
REV_AT_EPOCH   = 349
BSTAR          = -.92679E-2
MEAN_MOTION_DOT = -.1517956E-1
MEAN_MOTION_DDOT = 0

CCSDS_OMM_VERS = 2.0
CREATION_DATE  = 
ORIGINATOR     = 

OBJECT_NAME    = STARLINK-36421
OBJECT_ID      = 2026-008V
CENTER_NAME    = EARTH
REF_FRAME      = TEME
TIME_SYSTEM    = UTC
MEAN_ELEMENT_THEORY = SGP/SGP4

EPOCH          = 2026-01-29T12:00:02.998944
MEAN_MOTION    = 15.79207341
ECCENTRICITY   = .0001235
INCLINATION    = 43.0017
RA_OF_ASC_NODE = 71.2604
ARG_OF_PERICENTER = 286.7565
MEAN_ANOMALY   = 115.1463

EPHEMERIS_TYPE = 0
CLASSIFICATION_TYPE = U
NORAD_CAT_ID   = 67464
ELEMENT_SET_NO = 999
REV_AT_EPOCH   = 349
BSTAR          = -.94817E-2
MEAN_MOTION_DOT = -.1539578E-1
MEAN_MOTION_DDOT = 0

CCSDS_OMM_VERS = 2.0
CREATION_DATE  = 
ORIGINATOR     = 

OBJECT_NAME    = STARLINK-36437
OBJECT_ID      = 2026-008W
CENTER_NAME    = EARTH
REF_FRAME      = TEME
TIME_SYSTEM    = UTC
MEAN_ELEMENT_THEORY = SGP/SGP4

EPOCH          = 2026-01-29T12:00:02.998944
MEAN_MOTION    = 15.79107305
ECCENTRICITY   = .0001307
INCLINATION    = 43.0014
RA_OF_ASC_NODE = 71.2538
ARG_OF_PERICENTER = 278.0957
MEAN_ANOMALY   = 126.2179

EPHEMERIS_TYPE = 0
CLASSIFICATION_TYPE = U
NORAD_CAT_ID   = 67465
ELEMENT_SET_NO = 999
REV_AT_EPOCH   = 349
BSTAR          = -.95745E-2
MEAN_MOTION_DOT = -.1546568E-1
MEAN_MOTION_DDOT = 0

CCSDS_OMM_VERS = 2.0
CREATION_DATE  = 
ORIGINATOR     = 

OBJECT_NAME    = STARLINK-36520
OBJECT_ID      = 2026-008X
CENTER_NAME    = EARTH
REF_FRAME      = TEME
TIME_SYSTEM    = UTC
MEAN_ELEMENT_THEORY = SGP/SGP4

EPOCH          = 2026-01-29T12:00:02.998944
MEAN_MOTION    = 15.78986689
ECCENTRICITY   = .0001352
INCLINATION    = 43.0012
RA_OF_ASC_NODE = 71.2472
ARG_OF_PERICENTER = 276.8559
MEAN_ANOMALY   = 129.9935

EPHEMERIS_TYPE = 0
CLASSIFICATION_TYPE = U
NORAD_CAT_ID   = 67466
ELEMENT_SET_NO = 999
REV_AT_EPOCH   = 349
BSTAR          = -.98277E-2
MEAN_MOTION_DOT = -.1574619E-1
MEAN_MOTION_DDOT = 0

CCSDS_OMM_VERS = 2.0
CREATION_DATE  = 
ORIGINATOR     = 

OBJECT_NAME    = STARLINK-36425
OBJECT_ID      = 2026-008Y
CENTER_NAME    = EARTH
REF_FRAME      = TEME
TIME_SYSTEM    = UTC
MEAN_ELEMENT_THEORY = SGP/SGP4

EPOCH          = 2026-01-29T12:00:02.998944
MEAN_MOTION    = 15.78880997
ECCENTRICITY   = .0001269
INCLINATION    = 43.0012
RA_OF_ASC_NODE = 71.2412
ARG_OF_PERICENTER = 274.7413
MEAN_ANOMALY   = 134.5040

EPHEMERIS_TYPE = 0
CLASSIFICATION_TYPE = U
NORAD_CAT_ID   = 67467
ELEMENT_SET_NO = 999
REV_AT_EPOCH   = 349
BSTAR          = -.99415E-2
MEAN_MOTION_DOT = -.1583715E-1
MEAN_MOTION_DDOT = 0

